{"type": "FeatureCollection", "features": [{"type": "Feature", "properties": {"norad_id": 24876, "name": "GPS BIIR-2  (PRN 13)", "group": "gnss", "lat": -51.59628597144017, "lon": -16.11040165122472, "alt_km": 20436.953745516075, "timestamp": "2025-12-27T12:55:14.745648+00:00", "meta": {"OBJECT_NAME": "GPS BIIR-2  (PRN 13)", "OBJECT_ID": "1997-035A", "EPOCH": "2025-12-26T16:37:51.239424", "MEAN_MOTION": 2.00563658, "ECCENTRICITY": 0.0096861, "INCLINATION": 55.9017, "RA_OF_ASC_NODE": 105.3231, "ARG_OF_PERICENTER": 56.9183, "MEAN_ANOMALY": 304.0095, "EPHEMERIS_TYPE": 0, "CLASSIFICATION_TYPE": "U", "NORAD_CAT_ID": 24876, "ELEMENT_SET_NO": 999, "REV_AT_EPOCH": 20849, "BSTAR": 0, "MEAN_MOTION_DOT": 2.3e-07, "MEAN_MOTION_DDOT": 0}, "tle": {"line1": "1 24876U 97035A   25360.69295416  .00000023  00000+0  00000+0 0  9992", "line2": "2 24876  55.9017 105.3231 0096861  56.9183 304.0095  2.00563658208492"}}, "geometry": {"type": "Point", "coordinates": [-16.11040165122472, -51.59628597144017]}}, {"type": "Feature", "properties": {"norad_id": 26360, "name": "GPS BIIR-4  (PRN 20)", "group": "gnss", "lat": -13.17459470584919, "lon": 16.83238502905974, "alt_km": 20202.34165398421, "timestamp": "2025-12-27T12:55:14.745698+00:00", "meta": {"OBJECT_NAME": "GPS BIIR-4  (PRN 20)", "OBJECT_ID": "2000-025A", "EPOCH": "2025-12-27T03:31:58.663200", "MEAN_MOTION": 2.0056635, "ECCENTRICITY": 0.00388988, "INCLINATION": 55.0538, "RA_OF_ASC_NODE": 26.2552, "ARG_OF_PERICENTER": 243.3579, "MEAN_ANOMALY": 177.6691, "EPHEMERIS_TYPE": 0, "CLASSIFICATION_TYPE": "U", "NORAD_CAT_ID": 26360, "ELEMENT_SET_NO": 999, "REV_AT_EPOCH": 18782, "BSTAR": 0, "MEAN_MOTION_DOT": -5.6e-07, "MEAN_MOTION_DDOT": 0}, "tle": {"line1": "1 26360U 00025A   25361.14720675 -.00000056  00000+0  00000+0 0  9993", "line2": "2 26360  55.0538  26.2552 0038898 243.3579 177.6691  2.00566350187826"}}, "geometry": {"type": "Point", "coordinates": [16.83238502905974, -13.17459470584919]}}, {"type": "Feature", "properties": {"norad_id": 26407, "name": "GPS BIIR-5  (PRN 22)", "group": "gnss", "lat": -1.5681418701425542, "lon": 43.094563954028295, "alt_km": 20346.1555387417, "timestamp": "2025-12-27T12:55:14.745717+00:00", "meta": {"OBJECT_NAME": "GPS BIIR-5  (PRN 22)", "OBJECT_ID": "2000-040A", "EPOCH": "2025-12-27T00:44:30.924672", "MEAN_MOTION": 2.00568073, "ECCENTRICITY": 0.01252454, "INCLINATION": 54.8878, "RA_OF_ASC_NODE": 222.0006, "ARG_OF_PERICENTER": 302.0312, "MEAN_ANOMALY": 234.7403, "EPHEMERIS_TYPE": 0, "CLASSIFICATION_TYPE": "U", "NORAD_CAT_ID": 26407, "ELEMENT_SET_NO": 999, "REV_AT_EPOCH": 18649, "BSTAR": 0, "MEAN_MOTION_DOT": 7.7e-07, "MEAN_MOTION_DDOT": 0}, "tle": {"line1": "1 26407U 00040A   25361.03091348  .00000077  00000+0  00000+0 0  9990", "line2": "2 26407  54.8878 222.0006 0125245 302.0312 234.7403  2.00568073186495"}}, "geometry": {"type": "Point", "coordinates": [43.094563954028295, -1.5681418701425542]}}, {"type": "Feature", "properties": {"norad_id": 27663, "name": "GPS BIIR-8  (PRN 16)", "group": "gnss", "lat": -33.60637893900795, "lon": -166.03211022183683, "alt_km": 20211.28884393781, "timestamp": "2025-12-27T12:55:14.745732+00:00", "meta": {"OBJECT_NAME": "GPS BIIR-8  (PRN 16)", "OBJECT_ID": "2003-005A", "EPOCH": "2025-12-26T14:42:29.071008", "MEAN_MOTION": 2.00570063, "ECCENTRICITY": 0.0147921, "INCLINATION": 54.9204, "RA_OF_ASC_NODE": 221.8264, "ARG_OF_PERICENTER": 52.0033, "MEAN_ANOMALY": 318.8923, "EPHEMERIS_TYPE": 0, "CLASSIFICATION_TYPE": "U", "NORAD_CAT_ID": 27663, "ELEMENT_SET_NO": 999, "REV_AT_EPOCH": 16785, "BSTAR": 0, "MEAN_MOTION_DOT": 7.5e-07, "MEAN_MOTION_DDOT": 0}, "tle": {"line1": "1 27663U 03005A   25360.61283647  .00000075  00000+0  00000+0 0  9995", "line2": "2 27663  54.9204 221.8264 0147921  52.0033 318.8923  2.00570063167856"}}, "geometry": {"type": "Point", "coordinates": [-166.03211022183683, -33.60637893900795]}}, {"type": "Feature", "properties": {"norad_id": 28190, "name": "GPS BIIR-11 (PRN 19)", "group": "gnss", "lat": 47.18885596077903, "lon": 53.48832129962835, "alt_km": 19995.105627796172, "timestamp": "2025-12-27T12:55:14.745746+00:00", "meta": {"OBJECT_NAME": "GPS BIIR-11 (PRN 19)", "OBJECT_ID": "2004-009A", "EPOCH": "2025-12-27T01:44:09.252384", "MEAN_MOTION": 2.00560169, "ECCENTRICITY": 0.01086232, "INCLINATION": 54.9727, "RA_OF_ASC_NODE": 282.6413, "ARG_OF_PERICENTER": 167.8785, "MEAN_ANOMALY": 332.9978, "EPHEMERIS_TYPE": 0, "CLASSIFICATION_TYPE": "U", "NORAD_CAT_ID": 28190, "ELEMENT_SET_NO": 999, "REV_AT_EPOCH": 15949, "BSTAR": 0, "MEAN_MOTION_DOT": -3.3e-07, "MEAN_MOTION_DDOT": 0}, "tle": {"line1": "1 28190U 04009A   25361.07232931 -.00000033  00000+0  00000+0 0  9992", "line2": "2 28190  54.9727 282.6413 0108623 167.8785 332.9978  2.00560169159492"}}, "geometry": {"type": "Point", "coordinates": [53.48832129962835, 47.18885596077903]}}, {"type": "Feature", "properties": {"norad_id": 28474, "name": "GPS BIIR-13 (PRN 02)", "group": "gnss", "lat": 2.840631962399386, "lon": 149.8228997285187, "alt_km": 20489.543347025654, "timestamp": "2025-12-27T12:55:14.745760+00:00", "meta": {"OBJECT_NAME": "GPS BIIR-13 (PRN 02)", "OBJECT_ID": "2004-045A", "EPOCH": "2025-12-26T11:00:01.330272", "MEAN_MOTION": 2.00570057, "ECCENTRICITY": 0.0171007, "INCLINATION": 55.2338, "RA_OF_ASC_NODE": 331.8542, "ARG_OF_PERICENTER": 309.865, "MEAN_ANOMALY": 168.2197, "EPHEMERIS_TYPE": 0, "CLASSIFICATION_TYPE": "U", "NORAD_CAT_ID": 28474, "ELEMENT_SET_NO": 999, "REV_AT_EPOCH": 15496, "BSTAR": 0, "MEAN_MOTION_DOT": -5.9e-07, "MEAN_MOTION_DDOT": 0}, "tle": {"line1": "1 28474U 04045A   25360.45834873 -.00000059  00000+0  00000+0 0  9999", "line2": "2 28474  55.2338 331.8542 0171007 309.8650 168.2197  2.00570057154961"}}, "geometry": {"type": "Point", "coordinates": [149.8228997285187, 2.840631962399386]}}, {"type": "Feature", "properties": {"norad_id": 28874, "name": "GPS BIIRM-1 (PRN 17)", "group": "gnss", "lat": 34.185634669580345, "lon": 71.74148036162882, "alt_km": 20497.56468826737, "timestamp": "2025-12-27T12:55:14.745773+00:00", "meta": {"OBJECT_NAME": "GPS BIIRM-1 (PRN 17)", "OBJECT_ID": "2005-038A", "EPOCH": "2025-12-24T20:45:31.120992", "MEAN_MOTION": 2.00577585, "ECCENTRICITY": 0.0131256, "INCLINATION": 55.0211, "RA_OF_ASC_NODE": 280.2128, "ARG_OF_PERICENTER": 293.8377, "MEAN_ANOMALY": 72.9738, "EPHEMERIS_TYPE": 0, "CLASSIFICATION_TYPE": "U", "NORAD_CAT_ID": 28874, "ELEMENT_SET_NO": 999, "REV_AT_EPOCH": 14834, "BSTAR": 0, "MEAN_MOTION_DOT": -2.3e-07, "MEAN_MOTION_DDOT": 0}, "tle": {"line1": "1 28874U 05038A   25358.86494353 -.00000023  00000+0  00000+0 0  9994", "line2": "2 28874  55.0211 280.2128 0131256 293.8377  72.9738  2.00577585148340"}}, "geometry": {"type": "Point", "coordinates": [71.74148036162882, 34.185634669580345]}}, {"type": "Feature", "properties": {"norad_id": 28899, "name": "INMARSAT 4-F2 (SOUTHPAN/PRN 122)", "group": "gnss", "lat": 2.435776940383025, "lon": 73.47905752810487, "alt_km": 35796.0757828218, "timestamp": "2025-12-27T12:55:14.745788+00:00", "meta": {"OBJECT_NAME": "INMARSAT 4-F2 (SOUTHPAN/PRN 122)", "OBJECT_ID": "2005-044A", "EPOCH": "2025-12-25T11:49:38.684640", "MEAN_MOTION": 1.00270481, "ECCENTRICITY": 0.00024771, "INCLINATION": 4.8675, "RA_OF_ASC_NODE": 43.7139, "ARG_OF_PERICENTER": 231.4406, "MEAN_ANOMALY": 140.0074, "EPHEMERIS_TYPE": 0, "CLASSIFICATION_TYPE": "U", "NORAD_CAT_ID": 28899, "ELEMENT_SET_NO": 999, "REV_AT_EPOCH": 7378, "BSTAR": 0, "MEAN_MOTION_DOT": -2.41e-06, "MEAN_MOTION_DDOT": 0}, "tle": {"line1": "1 28899U 05044A   25359.49280885 -.00000241  00000+0  00000+0 0  9993", "line2": "2 28899   4.8675  43.7139 0002477 231.4406 140.0074  1.00270481 73789"}}, "geometry": {"type": "Point", "coordinates": [73.47905752810487, 2.435776940383025]}}, {"type": "Feature", "properties": {"norad_id": 29486, "name": "GPS BIIRM-2 (PRN 31)", "group": "gnss", "lat": 30.827216380074823, "lon": -176.8382538329361, "alt_km": 19902.147211941345, "timestamp": "2025-12-27T12:55:14.745802+00:00", "meta": {"OBJECT_NAME": "GPS BIIRM-2 (PRN 31)", "OBJECT_ID": "2006-042A", "EPOCH": "2025-12-26T12:05:34.202112", "MEAN_MOTION": 2.00553566, "ECCENTRICITY": 0.010727, "INCLINATION": 54.6956, "RA_OF_ASC_NODE": 158.1947, "ARG_OF_PERICENTER": 52.2681, "MEAN_ANOMALY": 319.984, "EPHEMERIS_TYPE": 0, "CLASSIFICATION_TYPE": "U", "NORAD_CAT_ID": 29486, "ELEMENT_SET_NO": 999, "REV_AT_EPOCH": 14093, "BSTAR": 0, "MEAN_MOTION_DOT": 1.08e-06, "MEAN_MOTION_DDOT": 0}, "tle": {"line1": "1 29486U 06042A   25360.50386808  .00000108  00000+0  00000+0 0  9992", "line2": "2 29486  54.6956 158.1947 0107270  52.2681 319.9840  2.00553566140935"}}, "geometry": {"type": "Point", "coordinates": [-176.8382538329361, 30.827216380074823]}}, {"type": "Feature", "properties": {"norad_id": 29601, "name": "GPS BIIRM-3 (PRN 12)", "group": "gnss", "lat": 54.16198760081437, "lon": -35.36185472412697, "alt_km": 19945.1076374473, "timestamp": "2025-12-27T12:55:14.745815+00:00", "meta": {"OBJECT_NAME": "GPS BIIRM-3 (PRN 12)", "OBJECT_ID": "2006-052A", "EPOCH": "2025-12-25T21:48:25.793568", "MEAN_MOTION": 2.00574428, "ECCENTRICITY": 0.00879901, "INCLINATION": 54.968, "RA_OF_ASC_NODE": 220.8755, "ARG_OF_PERICENTER": 87.5984, "MEAN_ANOMALY": 273.4866, "EPHEMERIS_TYPE": 0, "CLASSIFICATION_TYPE": "U", "NORAD_CAT_ID": 29601, "ELEMENT_SET_NO": 999, "REV_AT_EPOCH": 13993, "BSTAR": 0, "MEAN_MOTION_DOT": 7.2e-07, "MEAN_MOTION_DDOT": 0}, "tle": {"line1": "1 29601U 06052A   25359.90863187  .00000072  00000+0  00000+0 0  9994", "line2": "2 29601  54.9680 220.8755 0087990  87.5984 273.4866  2.00574428139938"}}, "geometry": {"type": "Point", "coordinates": [-35.36185472412697, 54.16198760081437]}}]}